NORAD_CAT_ID,OBJECT_NAME,OBJECT_TYPE,EPOCH,MEAN_MOTION,ECCENTRICITY,INCLINATION,RA_OF_ASC_NODE,ARG_OF_PERICENTER,MEAN_ANOMALY,BSTAR,MEAN_MOTION_DOT,MEAN_MOTION_DDOT,TLE_LINE0,TLE_LINE1,TLE_LINE2,SEMIMAJOR_AXIS,PERIOD,APOGEE,PERIGEE,DECAYED
53982.0,STARLINK-5120,PAYLOAD,2022-10-19 22:00:00,15.73204896,0.0002236,53.2186,22.5365,16.6069,282.1383,4.3808e-07,-5.6e-06,0.0,0 STARLINK-5120,1 53982U 22125U   22292.91667824 -.00000560  00000-0  43808-6 0  9990,2 53982  53.2186  22.5365 0002236  16.6069 282.1383 15.73204896  1304,6727.880999999999,91.533,351.251,348.242,0.0
53982.0,STARLINK-5120,PAYLOAD,2022-10-20 04:00:00,15.73213256,0.0002163,53.2186,21.2982,19.0018,256.4431,0.00011484,0.00015536,0.0,0 STARLINK-5120,1 53982U 22125U   22293.16667824  .00015536  00000-0  11484-3 0  9998,2 53982  53.2186  21.2982 0002163  19.0018 256.4431 15.73213256  2629,6727.857,91.532,351.17800000000005,348.267,0.0
53982.0,STARLINK-5120,PAYLOAD,2022-10-20 14:00:01,15.73169217,0.0002573,53.2186,19.2387,23.8795,92.7446,0.00045031,0.00062975,0.0,0 STARLINK-5120,1 53982U 22125U   22293.58334491  .00062975  00000-0  45031-3 0  9999,2 53982  53.2186  19.2387 0002573  23.8795  92.7446 15.73169217  1303,6727.983,91.535,351.579,348.117,0.0
53982.0,STARLINK-5120,PAYLOAD,2022-10-20 20:00:01,15.73244793,0.0002546999999999,53.2179,18.0,22.1881,71.1095,-0.00034225,-0.00048479,0.0,0 STARLINK-5120,1 53982U 22125U   22293.83334491 -.00048479  00000-0 -34225-3 0  9995,2 53982  53.2179  18.0000 0002547  22.1881  71.1095 15.73244793  2735,6727.767,91.531,351.346,347.9190000000001,0.0
53982.0,STARLINK-5120,PAYLOAD,2022-10-20 22:00:00,15.73260808,0.0002433,53.2181,17.5863,22.1486,183.3853,-0.00067764,-0.0009492,0.0,0 STARLINK-5120,1 53982U 22125U   22293.91667824 -.00094920  00000-0 -67764-3 0  9999,2 53982  53.2181  17.5863 0002433  22.1486 183.3853 15.73260808  1309,6727.722,91.53,351.224,347.95,0.0
53982.0,STARLINK-5120,PAYLOAD,2022-10-21 12:00:00,15.73168177,0.0002641999999999,53.2183,14.7018,25.3251,245.8696,0.00029618,0.00041097,0.0,0 STARLINK-5120,1 53982U 22125U   22294.50001157  .00041097  00000-0  29618-3 0  9997,2 53982  53.2183  14.7018 0002642  25.3251 245.8696 15.73168177  2833,6727.986,91.535,351.62800000000016,348.0730000000001,0.0
53982.0,STARLINK-5120,PAYLOAD,2022-10-21 14:00:01,15.73164393,0.000268,53.2184,14.2892,25.4875,357.9332,0.00051105,0.00071614,0.0,0 STARLINK-5120,1 53982U 22125U   22294.58334491  .00071614  00000-0  51105-3 0  9999,2 53982  53.2184  14.2892 0002680  25.4875 357.9332 15.73164393  1303,6727.996999999999,91.535,351.665,348.059,0.0
53982.0,STARLINK-5120,PAYLOAD,2022-10-21 22:00:00,15.73240183,0.0002575,53.2189,12.6399,22.9316,89.3993,-0.00060731,-0.00085158,0.0,0 STARLINK-5120,1 53982U 22125U   22294.91667824 -.00085158  00000-0 -60731-3 0  9990,2 53982  53.2189  12.6399 0002575  22.9316  89.3993 15.73240183  1308,6727.781,91.531,351.37800000000016,347.913,0.0
53982.0,STARLINK-5120,PAYLOAD,2022-10-22 04:00:00,15.7316388,0.000248,53.219,11.4018,24.3125,64.7349,0.000573,0.00080451,0.0,0 STARLINK-5120,1 53982U 22125U   22295.16667824  .00080451  00000-0  57300-3 0  9995,2 53982  53.2190  11.4018 0002480  24.3125  64.7349 15.73163880  2945,6727.998000000001,91.535,351.532,348.195,0.0
53982.0,STARLINK-5120,PAYLOAD,2022-10-22 14:00:01,15.73242783,0.0002782,53.2189,9.3425,21.4594,268.7534,-1.2319e-05,-2.355e-05,0.0,0 STARLINK-5120,1 53982U 22125U   22295.58334491 -.00002355  00000-0 -12319-4 0  9993,2 53982  53.2189   9.3425 0002782  21.4594 268.7534 15.73242783  1305,6727.773,91.531,351.51,347.767,0.0
53982.0,STARLINK-5120,PAYLOAD,2022-10-22 20:00:01,15.73263054,0.0002708,53.2183,8.1044,20.0467,246.9077,-0.00036581,-0.00051795,0.0,0 STARLINK-5120,1 53982U 22125U   22295.83334491 -.00051795  00000-0 -36581-3 0  9999,2 53982  53.2183   8.1044 0002708  20.0467 246.9077 15.73263054  3042,6727.715,91.53,351.402,347.759,0.0
53982.0,STARLINK-5120,PAYLOAD,2022-10-22 22:00:00,15.73228754,0.0002602,53.2185,7.6915,20.4859,358.7255,8.7372e-05,0.00011673,0.0,0 STARLINK-5120,1 53982U 22125U   22295.91667824  .00011673  00000-0  87372-4 0  9991,2 53982  53.2185   7.6915 0002602  20.4859 358.7255 15.73228754  1302,6727.813,91.532,351.42900000000014,347.92800000000005,0.0
53982.0,STARLINK-5120,PAYLOAD,2022-10-23 04:00:01,15.73253514,0.0002541,53.2185,6.4535,23.0963,332.9152,8.887600000000001e-05,0.00011898,0.0,0 STARLINK-5120,1 53982U 22125U   22296.16668981  .00011898  00000-0  88876-4 0  9993,2 53982  53.2185   6.4535 0002541  23.0963 332.9152 15.73253514  3094,6727.743,91.53,351.31699999999995,347.898,0.0
53982.0,STARLINK-5120,PAYLOAD,2022-10-23 12:00:00,15.73260222,0.0002796999999999,53.2185,4.8062,22.192,62.7313,-0.00019312,-0.00027712,0.0,0 STARLINK-5120,1 53982U 22125U   22296.50001157 -.00027712  00000-0 -19312-3 0  9999,2 53982  53.2185   4.8062 0002797  22.1920  62.7313 15.73260222  3155,6727.723000000001,91.53,351.47,347.707,0.0
53982.0,STARLINK-5120,PAYLOAD,2022-10-23 14:00:01,15.73252379,0.0002828,53.2188,4.3942,20.2756,176.8972,-0.00010914,-0.00015949,0.0,0 STARLINK-5120,1 53982U 22125U   22296.58334491 -.00015949  00000-0 -10914-3 0  9995,2 53982  53.2188   4.3942 0002828  20.2756 176.8972 15.73252379  1308,6727.746,91.53,351.51300000000015,347.708,0.0
53982.0,STARLINK-5120,PAYLOAD,2022-10-23 22:00:00,15.73267361,0.0002586,53.2189,2.7431,14.7949,271.3535,-0.0011624,-0.00161171,0.0,0 STARLINK-5120,1 53982U 22125U   22296.91667824 -.00161171  00000-0 -11624-2 0  9998,2 53982  53.2189   2.7431 0002586  14.7949 271.3535 15.73267361  1300,6727.703,91.529,351.30800000000005,347.82800000000015,0.0
53982.0,STARLINK-5120,PAYLOAD,2022-10-24 04:00:01,15.73191621,0.0002526999999999,53.219,1.5051,14.1099,248.8252,-0.0009062999999999,-0.00125909,0.0,0 STARLINK-5120,1 53982U 22125U   22297.16668981 -.00125909  00000-0 -90630-3 0  9995,2 53982  53.2190   1.5051 0002527  14.1099 248.8252 15.73191621  3258,6727.919,91.534,351.4840000000001,348.084,0.0
53982.0,STARLINK-5120,PAYLOAD,2022-10-24 14:00:01,15.72969626,0.0002853999999999,53.2184,359.444,10.3866,93.5432,0.0018678,0.00267397,0.0,0 STARLINK-5120,1 53982U 22125U   22297.58334491  .00267397  00000-0  18678-2 0  9994,2 53982  53.2184 359.4440 0002854  10.3866  93.5432 15.72969626  1307,6728.552,91.547,352.337,348.497,0.0
53982.0,STARLINK-5120,PAYLOAD,2022-10-24 20:00:01,15.73076009,0.0002682,53.2175,358.2028,7.7077,72.7782,0.0020085,0.00289667,0.0,0 STARLINK-5120,1 53982U 22125U   22297.83334491  .00289667  00000-0  20085-2 0  9991,2 53982  53.2175 358.2028 0002682   7.7077  72.7782 15.73076009  3369,6728.249,91.54,351.918,348.309,0.0
53982.0,STARLINK-5120,PAYLOAD,2022-10-24 22:00:00,15.73154443,0.0002698,53.2184,357.7952,7.5279,185.1558,0.00026972,0.00037331,0.0,0 STARLINK-5120,1 53982U 22125U   22297.91667824  .00037331  00000-0  26972-3 0  9990,2 53982  53.2184 357.7952 0002698   7.5279 185.1558 15.73154443  1309,6728.025,91.536,351.705,348.075,0.0
53982.0,STARLINK-5120,PAYLOAD,2022-10-25 04:00:00,15.73176506,0.0002578,53.2183,356.5578,10.342,159.0032,0.0005098,0.00071472,0.0,0 STARLINK-5120,1 53982U 22125U   22298.16667824  .00071472  00000-0  50980-3 0  9998,2 53982  53.2183 356.5578 0002578  10.3420 159.0032 15.73176506  3411,6727.962,91.535,351.56199999999984,348.093,0.0
53982.0,STARLINK-5120,PAYLOAD,2022-10-25 14:00:01,15.73199657,0.0002971,53.2183,354.4984,10.7044,359.8078,0.00062004,0.00087318,0.0,0 STARLINK-5120,1 53982U 22125U   22298.58334491  .00087318  00000-0  62004-3 0  9991,2 53982  53.2183 354.4984 0002971  10.7044 359.8078 15.73199657  1300,6727.896,91.533,351.76,347.76199999999994,0.0
53982.0,STARLINK-5120,PAYLOAD,2022-10-25 20:00:01,15.73292627,0.0002897,53.2184,353.2599,11.8682,335.3532,-0.00072697,-0.00101851,0.0,0 STARLINK-5120,1 53982U 22125U   22298.83334491 -.00101851  00000-0 -72697-3 0  9999,2 53982  53.2184 353.2599 0002897  11.8682 335.3532 15.73292627  3517,6727.630999999999,91.528,351.445,347.547,0.0
53982.0,STARLINK-5120,PAYLOAD,2022-10-25 22:00:01,15.73259745,0.0002839999999999,53.2186,352.8469,12.481,87.0662,-0.00038144,-0.00053962,0.0,0 STARLINK-5120,1 53982U 22125U   22298.91668981 -.00053962  00000-0 -38144-3 0  9990,2 53982  53.2186 352.8469 0002840  12.4810  87.0662 15.73259745  1302,6727.725,91.53,351.501,347.67900000000014,0.0
53982.0,STARLINK-5120,PAYLOAD,2022-10-26 04:00:00,15.73243357,0.0002863999999999,53.2187,351.6093,16.8565,59.3561,-0.00028094,-0.00039946,0.0,0 STARLINK-5120,1 53982U 22125U   22299.16667824 -.00039946  00000-0 -28094-3 0  9992,2 53982  53.2187 351.6093 0002864  16.8565  59.3561 15.73243357  3577,6727.772,91.531,351.56300000000016,347.71,0.0
53982.0,STARLINK-5120,PAYLOAD,2022-10-26 14:00:01,15.73172489,0.000318,53.2182,349.5497,13.2785,264.1345,0.00065475,0.0009218999999999,0.0,0 STARLINK-5120,1 53982U 22125U   22299.58334491  .00092190  00000-0  65475-3 0  9991,2 53982  53.2182 349.5497 0003180  13.2785 264.1345 15.73172489  1305,6727.974,91.535,351.978,347.699,0.0
53982.0,STARLINK-5120,PAYLOAD,2022-10-26 20:00:01,15.73262689,0.0002976,53.2178,348.311,12.8309,241.2685,-0.00058233,-0.00081799,0.0,0 STARLINK-5120,1 53982U 22125U   22299.83334491 -.00081799  00000-0 -58233-3 0  9998,2 53982  53.2178 348.3110 0002976  12.8309 241.2685 15.73262689  3675,6727.715999999999,91.53,351.584,347.579,0.0
53982.0,STARLINK-5120,PAYLOAD,2022-10-26 22:00:00,15.73237176,0.0002883,53.2179,347.8982,12.3986,353.9519,-0.00032282,-0.00045765,0.0,0 STARLINK-5120,1 53982U 22125U   22299.91667824 -.00045765  00000-0 -32282-3 0  9995,2 53982  53.2179 347.8982 0002883  12.3986 353.9519 15.73237176  1308,6727.7890000000025,91.531,351.594,347.715,0.0
53982.0,STARLINK-5120,PAYLOAD,2022-10-27 04:00:00,15.73293351,0.000278,53.2175,346.6534,14.5679,328.5349,-0.0018072,-0.00247987,0.0,0 STARLINK-5120,1 53982U 22125U   22300.16667824 -.00247987  00000-0 -18072-2 0  9995,2 53982  53.2175 346.6534 0002780  14.5679 328.5349 15.73293351  3727,6727.629,91.528,351.36400000000015,347.624,0.0
